NORAD_CAT_ID,OBJECT_NAME,OBJECT_TYPE,EPOCH,MEAN_MOTION,ECCENTRICITY,INCLINATION,RA_OF_ASC_NODE,ARG_OF_PERICENTER,MEAN_ANOMALY,BSTAR,MEAN_MOTION_DOT,MEAN_MOTION_DDOT,TLE_LINE0,TLE_LINE1,TLE_LINE2,SEMIMAJOR_AXIS,PERIOD,APOGEE,PERIGEE,DECAYED
53414.0,STARLINK-4304,PAYLOAD,2022-09-28 06:00:00,15.49942067,0.000181,53.2181,6.6827,45.06,46.5872,0.00084586,0.00047948,0.0,0 STARLINK-4304,1 53414U 22097AC  22271.25001157  .00047948  00000-0  84586-3 0  9998,2 53414  53.2181   6.6827 0001810  45.0600  46.5872 15.49942067  8134,6795.031999999997,92.907,418.127,415.667,0.0
53414.0,STARLINK-4304,PAYLOAD,2022-09-28 14:00:01,15.49980722,0.0001968,53.2177,5.0905,36.8015,115.8492,-0.0014314,-0.00081134,0.0,0 STARLINK-4304,1 53414U 22097AC  22271.58334491 -.00081134  00000-0 -14314-2 0  9992,2 53414  53.2177   5.0905 0001968  36.8015 115.8492 15.49980722  8184,6794.919,92.904,418.122,415.447,0.0
53414.0,STARLINK-4304,PAYLOAD,2022-09-28 22:00:00,15.49867653,0.0002024,53.2176,3.4918,35.278,178.3442,-0.0023724,-0.0013277,0.0,0 STARLINK-4304,1 53414U 22097AC  22271.91667824 -.00132770  00000-0 -23724-2 0  9996,2 53414  53.2176   3.4918 0002024  35.2780 178.3442 15.49867653  8237,6795.25,92.911,418.49,415.74,0.0
53414.0,STARLINK-4304,PAYLOAD,2022-09-29 06:00:00,15.49882414,0.0002024,53.2175,1.894,45.8733,228.5504,0.00013839,7.409e-05,0.0,0 STARLINK-4304,1 53414U 22097AC  22272.25001157  .00007409  00000-0  13839-3 0  9990,2 53414  53.2175   1.8940 0002024  45.8733 228.5504 15.49882414  8282,6795.206999999999,92.91,418.447,415.696,0.0
53414.0,STARLINK-4304,PAYLOAD,2022-09-29 14:00:01,15.49847409,0.000213,53.2178,0.3108,38.9453,296.5447,0.00037738,0.00020996,0.0,0 STARLINK-4304,1 53414U 22097AC  22272.58334491  .00020996  00000-0  37738-3 0  9996,2 53414  53.2178   0.3108 0002130  38.9453 296.5447 15.49847409  8337,6795.309,92.912,418.621,415.727,0.0
53414.0,STARLINK-4304,PAYLOAD,2022-09-29 22:00:00,15.50021668,0.0002011,53.2177,358.7123,32.0702,4.2807,-0.012527,-0.00657916,0.0,0 STARLINK-4304,1 53414U 22097AC  22272.91667824 -.00657916  00000-0 -12527-1 0  9999,2 53414  53.2177 358.7123 0002011  32.0702   4.2807 15.50021668  1300,6794.8,92.902,418.031,415.298,0.0
53414.0,STARLINK-4304,PAYLOAD,2022-09-30 14:00:01,15.49072697,0.0001971,53.2178,355.5243,31.6423,125.7337,-0.022584,-0.01124039,0.0,0 STARLINK-4304,1 53414U 22097AC  22273.58334491 -.01124039  00000-0 -22584-1 0  9994,2 53414  53.2178 355.5243 0001971  31.6423 125.7337 15.49072697  1301,6797.574000000001,92.959,420.779,418.1,0.0
53414.0,STARLINK-4304,PAYLOAD,2022-09-30 16:00:00,15.48840389,0.0001821999999999,53.2177,355.126,33.4863,228.8513,-0.021565,-0.01069953,0.0,0 STARLINK-4304,1 53414U 22097AC  22273.66667824 -.01069953  00000-0 -21565-1 0  9993,2 53414  53.2177 355.1260 0001822  33.4863 228.8513 15.48840389  8508,6798.254,92.973,421.358,418.881,0.0
53414.0,STARLINK-4304,PAYLOAD,2022-09-30 22:00:00,15.48267636,0.0001815,53.2174,353.9312,33.8822,182.9318,-0.0219439999999999,-0.01067244,0.0,0 STARLINK-4304,1 53414U 22097AC  22273.91667824 -.01067244  00000-0 -21944-1 0  9993,2 53414  53.2174 353.9312 0001815  33.8822 182.9318 15.48267636  1302,6799.931,93.007,423.03,420.561,0.0
53414.0,STARLINK-4304,PAYLOAD,2022-10-01 14:00:01,15.46759391,0.0001419,53.2176,350.7567,34.7827,298.1105,-0.0234599999999999,-0.01080752,0.0,0 STARLINK-4304,1 53414U 22097AC  22274.58334491 -.01080752  00000-0 -23460-1 0  9992,2 53414  53.2176 350.7567 0001419  34.7827 298.1105 15.46759391  8646,6804.35,93.098,427.181,425.25,0.0
53414.0,STARLINK-4304,PAYLOAD,2022-10-01 22:00:00,15.45983429,0.0001512,53.2173,349.1691,39.0707,350.5057,-0.023555,-0.01058534,0.0,0 STARLINK-4304,1 53414U 22097AC  22274.91667824 -.01058534  00000-0 -23555-1 0  9996,2 53414  53.2173 349.1691 0001512  39.0707 350.5057 15.45983429  1307,6806.627,93.145,429.521,427.463,0.0
53414.0,STARLINK-4304,PAYLOAD,2022-10-02 14:00:01,15.44492703,0.0001623,53.2175,346.0061,48.6001,91.5703,-0.025743,-0.01110961,0.0,0 STARLINK-4304,1 53414U 22097AC  22275.58334491 -.01110961  00000-0 -25743-1 0  9995,2 53414  53.2175 346.0061 0001623  48.6001  91.5703 15.44492703  1301,6811.005999999999,93.234,433.976,431.766,0.0
53414.0,STARLINK-4304,PAYLOAD,2022-10-02 22:00:00,15.43705322,0.0001558,53.2173,344.4242,43.5923,150.5291,-0.025466,-0.01058277,0.0,0 STARLINK-4304,1 53414U 22097AC  22275.91667824 -.01058277  00000-0 -25466-1 0  9994,2 53414  53.2173 344.4242 0001558  43.5923 150.5291 15.43705322  8854,6813.321999999999,93.282,436.24800000000016,434.125,0.0
53414.0,STARLINK-4304,PAYLOAD,2022-10-03 14:00:01,15.42196915,0.0001398,53.2175,341.2717,49.9422,249.3062,-0.027175,-0.01086817,0.0,0 STARLINK-4304,1 53414U 22097AC  22276.58334491 -.01086817  00000-0 -27175-1 0  9999,2 53414  53.2175 341.2717 0001398  49.9422 249.3062 15.42196915  1301,6817.764,93.373,440.582,438.676,0.0
53414.0,STARLINK-4304,PAYLOAD,2022-10-03 22:00:00,15.4142679,0.0001428,53.2174,339.6943,42.1854,308.268,-0.0275009999999999,-0.01072958,0.0,0 STARLINK-4304,1 53414U 22097AC  22276.91667824 -.01072958  00000-0 -27501-1 0  9999,2 53414  53.2174 339.6943 0001428  42.1854 308.2680 15.41426790  1307,6820.035,93.42,442.87300000000016,440.926,0.0
53414.0,STARLINK-4304,PAYLOAD,2022-10-04 14:00:01,15.39926276,0.0001618,53.2177,336.5535,39.0121,51.0876,-0.029604,-0.0109657,0.0,0 STARLINK-4304,1 53414U 22097AC  22277.58334491 -.01096570  00000-0 -29604-1 0  9996,2 53414  53.2177 336.5535 0001618  39.0121  51.0876 15.39926276  1307,6824.464,93.511,447.4330000000001,445.225,0.0
53414.0,STARLINK-4304,PAYLOAD,2022-10-04 22:00:00,15.39145805,0.0001609,53.2175,334.9814,44.5614,94.0105,-0.029516,-0.01067911,0.0,0 STARLINK-4304,1 53414U 22097AC  22277.91667824 -.01067911  00000-0 -29516-1 0  9991,2 53414  53.2175 334.9814 0001609  44.5614  94.0105 15.39145805  9160,6826.771,93.558,449.734,447.538,0.0
53414.0,STARLINK-4304,PAYLOAD,2022-10-05 14:00:01,15.37627373,0.0001718,53.2177,331.8511,41.9057,190.9098,-0.031011,-0.01067483,0.0,0 STARLINK-4304,1 53414U 22097AC  22278.58335648 -.01067483  00000-0 -31011-1 0  9998,2 53414  53.2177 331.8511 0001718  41.9057 190.9098 15.37627373  1303,6831.265,93.651,454.30300000000005,451.956,0.0
53414.0,STARLINK-4304,PAYLOAD,2022-10-05 22:00:00,15.36867971,0.0001588,53.2177,330.285,41.5118,236.9633,-0.03183,-0.01068744,0.0,0 STARLINK-4304,1 53414U 22097AC  22278.91667824 -.01068744  00000-0 -31830-1 0  9999,2 53414  53.2177 330.2850 0001588  41.5118 236.9633 15.36867971  1306,6833.515,93.697,456.465,454.295,0.0
53414.0,STARLINK-4304,PAYLOAD,2022-10-06 14:00:01,15.35347613,0.0001803,53.2175,327.1646,30.9058,336.2745,-0.033339,-0.01065974,0.0,0 STARLINK-4304,1 53414U 22097AC  22279.58334491 -.01065974  00000-0 -33339-1 0  9992,2 53414  53.2175 327.1646 0001803  30.9058 336.2745 15.35347613  1300,6838.025,93.79,461.12300000000016,458.657,0.0
53414.0,STARLINK-4304,PAYLOAD,2022-10-06 22:42:55,15.34519546,0.0001766999999999,53.2175,325.4651,40.5625,174.2754,-0.0341879999999999,-0.01064555,0.0,0 STARLINK-4304,1 53414U 22097AC  22279.94646991 -.01064555  00000-0 -34188-1 0  9990,2 53414  53.2175 325.4651 0001767  40.5625 174.2754 15.34519546  1308,6840.485,93.84,463.559,461.141,0.0
53414.0,STARLINK-4304,PAYLOAD,2022-10-07 00:00:00,15.34398928,0.0001836,53.2173,325.2149,37.5198,113.2489,-0.034426,-0.01067586,0.0,0 STARLINK-4304,1 53414U 22097AC  22280.00001157 -.01067586  00000-0 -34426-1 0  9990,2 53414  53.2173 325.2149 0001836  37.5198 113.2489 15.34398928  9488,6840.843000000003,93.848,463.964,461.452,0.0
53414.0,STARLINK-4304,PAYLOAD,2022-10-07 14:00:01,15.33066012,0.0002195,53.2174,322.495,28.0875,105.3077,-0.035663,-0.01060656,0.0,0 STARLINK-4304,1 53414U 22097AC  22280.58334491 -.01060656  00000-0 -35663-1 0  9998,2 53414  53.2174 322.4950 0002195  28.0875 105.3077 15.33066012  1307,6844.808000000001,93.929,468.175,465.171,0.0
53414.0,STARLINK-4304,PAYLOAD,2022-10-07 22:00:00,15.32309111,0.0001672,53.2173,320.9412,45.9852,127.6554,-0.036679,-0.01064578,0.0,0 STARLINK-4304,1 53414U 22097AC  22280.91667824 -.01064578  00000-0 -36679-1 0  9999,2 53414  53.2173 320.9412 0001672  45.9852 127.6554 15.32309111  9623,6847.062,93.976,470.072,467.782,0.0
53414.0,STARLINK-4304,PAYLOAD,2022-10-08 14:00:01,15.30783208,0.0001436,53.2171,317.8429,52.0138,199.3823,-0.038078,-0.01054289,0.0,0 STARLINK-4304,1 53414U 22097AC  22281.58334491 -.01054289  00000-0 -38078-1 0  9997,2 53414  53.2171 317.8429 0001436  52.0138 199.3823 15.30783208  1301,6851.611,94.069,474.46,472.492,0.0
53414.0,STARLINK-4304,PAYLOAD,2022-10-08 22:00:00,15.30029821,0.000145,53.2175,316.2924,49.9045,238.9986,-0.039341,-0.01063174,0.0,0 STARLINK-4304,1 53414U 22097AC  22281.91667824 -.01063174  00000-0 -39341-1 0  9990,2 53414  53.2175 316.2924 0001450  49.9045 238.9986 15.30029821  1300,6853.86,94.116,476.719,474.731,0.0
53414.0,STARLINK-4304,PAYLOAD,2022-10-09 14:00:01,15.28510375,0.0001505,53.217,313.2054,45.132,316.0473,-0.041187,-0.01061998,0.0,0 STARLINK-4304,1 53414U 22097AC  22282.58334491 -.01061998  00000-0 -41187-1 0  9998,2 53414  53.2170 313.2054 0001505  45.1320 316.0473 15.28510375  1317,6858.401999999999,94.209,481.299,479.234,0.0
53414.0,STARLINK-4304,PAYLOAD,2022-10-09 22:00:00,15.27750905,0.0001416999999999,53.2174,311.6604,46.217,349.7341,-0.042194,-0.01062753,0.0,0 STARLINK-4304,1 53414U 22097AC  22282.91667824 -.01062753  00000-0 -42194-1 0  9993,2 53414  53.2174 311.6604 0001417  46.2170 349.7341 15.27750905  1301,6860.674,94.256,483.512,481.567,0.0
53414.0,STARLINK-4304,PAYLOAD,2022-10-10 14:00:01,15.26232786,0.0001643,53.2171,308.5833,43.3889,59.3623,-0.0442069999999999,-0.01063019,0.0,0 STARLINK-4304,1 53414U 22097AC  22283.58334491 -.01063019  00000-0 -44207-1 0  9991,2 53414  53.2171 308.5833 0001643  43.3889  59.3623 15.26232786  1301,6865.223000000001,94.35,488.216,485.96,0.0
